[{"OBJECT_NAME":"STARLINK-34707","OBJECT_ID":"2025-175C","EPOCH":"2026-03-22T05:34:26.390496","MEAN_MOTION":15.05658659,"ECCENTRICITY":0.00020221,"INCLINATION":97.6023,"RA_OF_ASC_NODE":314.9541,"ARG_OF_PERICENTER":63.9791,"MEAN_ANOMALY":296.1644,"EPHEMERIS_TYPE":0,"CLASSIFICATION_TYPE":"U","NORAD_CAT_ID":65176,"ELEMENT_SET_NO":999,"REV_AT_EPOCH":3452,"BSTAR":0.00032282834,"MEAN_MOTION_DOT":4.602e-5,"MEAN_MOTION_DDOT":0},{"OBJECT_NAME":"STARLINK-34967","OBJECT_ID":"2025-175D","EPOCH":"2026-03-22T05:30:27.761472","MEAN_MOTION":15.0565051,"ECCENTRICITY":0.00025515,"INCLINATION":97.6023,"RA_OF_ASC_NODE":314.9592,"ARG_OF_PERICENTER":76.7047,"MEAN_ANOMALY":283.4464,"EPHEMERIS_TYPE":0,"CLASSIFICATION_TYPE":"U","NORAD_CAT_ID":65177,"ELEMENT_SET_NO":999,"REV_AT_EPOCH":3452,"BSTAR":0.00024008171,"MEAN_MOTION_DOT":3.405e-5,"MEAN_MOTION_DDOT":0},{"OBJECT_NAME":"STARLINK-34929","OBJECT_ID":"2025-175E","EPOCH":"2026-03-22T05:26:28.059360","MEAN_MOTION":15.0565399,"ECCENTRICITY":0.00024168,"INCLINATION":97.6016,"RA_OF_ASC_NODE":314.9631,"ARG_OF_PERICENTER":85.2798,"MEAN_ANOMALY":274.8704,"EPHEMERIS_TYPE":0,"CLASSIFICATION_TYPE":"U","NORAD_CAT_ID":65178,"ELEMENT_SET_NO":999,"REV_AT_EPOCH":3452,"BSTAR":0.00021991671,"MEAN_MOTION_DOT":3.114e-5,"MEAN_MOTION_DDOT":0},{"OBJECT_NAME":"STARLINK-34932","OBJECT_ID":"2025-175F","EPOCH":"2026-03-22T05:18:29.666880","MEAN_MOTION":15.05655927,"ECCENTRICITY":0.00022889,"INCLINATION":97.6014,"RA_OF_ASC_NODE":314.9712,"ARG_OF_PERICENTER":82.8465,"MEAN_ANOMALY":277.3022,"EPHEMERIS_TYPE":0,"CLASSIFICATION_TYPE":"U","NORAD_CAT_ID":65179,"ELEMENT_SET_NO":999,"REV_AT_EPOCH":3452,"BSTAR":0.00025914425,"MEAN_MOTION_DOT":3.681e-5,"MEAN_MOTION_DDOT":0},{"OBJECT_NAME":"STARLINK-34862","OBJECT_ID":"2025-175G","EPOCH":"2026-03-22T05:14:31.832736","MEAN_MOTION":15.05653725,"ECCENTRICITY":0.00024928,"INCLINATION":97.6017,"RA_OF_ASC_NODE":314.9748,"ARG_OF_PERICENTER":80.1822,"MEAN_ANOMALY":279.9687,"EPHEMERIS_TYPE":0,"CLASSIFICATION_TYPE":"U","NORAD_CAT_ID":65180,"ELEMENT_SET_NO":999,"REV_AT_EPOCH":3452,"BSTAR":0.00057620271,"MEAN_MOTION_DOT":8.264e-5,"MEAN_MOTION_DDOT":0},{"OBJECT_NAME":"STARLINK-34942","OBJECT_ID":"2025-175H","EPOCH":"2026-03-21T21:23:57.538752","MEAN_MOTION":15.05657909,"ECCENTRICITY":0.00028648,"INCLINATION":97.6019,"RA_OF_ASC_NODE":314.6409,"ARG_OF_PERICENTER":86.6182,"MEAN_ANOMALY":273.5372,"EPHEMERIS_TYPE":0,"CLASSIFICATION_TYPE":"U","NORAD_CAT_ID":65181,"ELEMENT_SET_NO":999,"REV_AT_EPOCH":3444,"BSTAR":-0.00056296621,"MEAN_MOTION_DOT":-8.177e-5,"MEAN_MOTION_DDOT":0},{"OBJECT_NAME":"STARLINK-34944","OBJECT_ID":"2025-175J","EPOCH":"2026-03-22T05:10:31.149984","MEAN_MOTION":15.05656427,"ECCENTRICITY":0.00017777,"INCLINATION":97.6002,"RA_OF_ASC_NODE":314.9779,"ARG_OF_PERICENTER":81.5869,"MEAN_ANOMALY":278.5559,"EPHEMERIS_TYPE":0,"CLASSIFICATION_TYPE":"U","NORAD_CAT_ID":65182,"ELEMENT_SET_NO":999,"REV_AT_EPOCH":3452,"BSTAR":0.00026867157,"MEAN_MOTION_DOT":3.819e-5,"MEAN_MOTION_DDOT":0},{"OBJECT_NAME":"STARLINK-34939","OBJECT_ID":"2025-175K","EPOCH":"2026-03-22T05:06:32.325696","MEAN_MOTION":15.05673242,"ECCENTRICITY":0.00010832,"INCLINATION":97.602,"RA_OF_ASC_NODE":314.9794,"ARG_OF_PERICENTER":115.3838,"MEAN_ANOMALY":244.7501,"EPHEMERIS_TYPE":0,"CLASSIFICATION_TYPE":"U","NORAD_CAT_ID":65183,"ELEMENT_SET_NO":999,"REV_AT_EPOCH":3449,"BSTAR":0.00045959554,"MEAN_MOTION_DOT":6.581e-5,"MEAN_MOTION_DDOT":0},{"OBJECT_NAME":"STARLINK-34947","OBJECT_ID":"2025-175L","EPOCH":"2026-03-22T05:02:33.597312","MEAN_MOTION":15.0568651,"ECCENTRICITY":0.00019466,"INCLINATION":97.6028,"RA_OF_ASC_NODE":314.9851,"ARG_OF_PERICENTER":66.3782,"MEAN_ANOMALY":293.7649,"EPHEMERIS_TYPE":0,"CLASSIFICATION_TYPE":"U","NORAD_CAT_ID":65184,"ELEMENT_SET_NO":999,"REV_AT_EPOCH":3452,"BSTAR":0.0010742535,"MEAN_MOTION_DOT":0.00015489,"MEAN_MOTION_DDOT":0},{"OBJECT_NAME":"STARLINK-34945","OBJECT_ID":"2025-175M","EPOCH":"2026-03-22T04:58:33.712032","MEAN_MOTION":15.05656665,"ECCENTRICITY":0.00016235,"INCLINATION":97.6017,"RA_OF_ASC_NODE":314.9865,"ARG_OF_PERICENTER":78.6591,"MEAN_ANOMALY":281.4818,"EPHEMERIS_TYPE":0,"CLASSIFICATION_TYPE":"U","NORAD_CAT_ID":65185,"ELEMENT_SET_NO":999,"REV_AT_EPOCH":3452,"BSTAR":0.00044518388,"MEAN_MOTION_DOT":6.37e-5,"MEAN_MOTION_DDOT":0},{"OBJECT_NAME":"STARLINK-34965","OBJECT_ID":"2025-175N","EPOCH":"2026-03-22T04:50:35.100096","MEAN_MOTION":15.05659292,"ECCENTRICITY":0.00019209,"INCLINATION":97.6036,"RA_OF_ASC_NODE":314.9968,"ARG_OF_PERICENTER":68.3503,"MEAN_ANOMALY":291.7928,"EPHEMERIS_TYPE":0,"CLASSIFICATION_TYPE":"U","NORAD_CAT_ID":65186,"ELEMENT_SET_NO":999,"REV_AT_EPOCH":3452,"BSTAR":0.00037358479,"MEAN_MOTION_DOT":5.335e-5,"MEAN_MOTION_DDOT":0},{"OBJECT_NAME":"STARLINK-34915","OBJECT_ID":"2025-175P","EPOCH":"2026-03-22T04:54:34.415136","MEAN_MOTION":15.0565735,"ECCENTRICITY":0.00021567,"INCLINATION":97.6034,"RA_OF_ASC_NODE":314.9941,"ARG_OF_PERICENTER":74.6352,"MEAN_ANOMALY":285.5113,"EPHEMERIS_TYPE":0,"CLASSIFICATION_TYPE":"U","NORAD_CAT_ID":65187,"ELEMENT_SET_NO":999,"REV_AT_EPOCH":3452,"BSTAR":0.00025259015,"MEAN_MOTION_DOT":3.586e-5,"MEAN_MOTION_DDOT":0},{"OBJECT_NAME":"STARLINK-34972","OBJECT_ID":"2025-175Q","EPOCH":"2026-03-22T04:46:36.157440","MEAN_MOTION":15.05651672,"ECCENTRICITY":0.00018126,"INCLINATION":97.6041,"RA_OF_ASC_NODE":315.0003,"ARG_OF_PERICENTER":57.5623,"MEAN_ANOMALY":302.5779,"EPHEMERIS_TYPE":0,"CLASSIFICATION_TYPE":"U","NORAD_CAT_ID":65188,"ELEMENT_SET_NO":999,"REV_AT_EPOCH":3449,"BSTAR":0.00019438912,"MEAN_MOTION_DOT":2.745e-5,"MEAN_MOTION_DDOT":0},{"OBJECT_NAME":"STARLINK-34866","OBJECT_ID":"2025-175R","EPOCH":"2026-03-22T04:42:36.529632","MEAN_MOTION":15.05661753,"ECCENTRICITY":0.00016644,"INCLINATION":97.6055,"RA_OF_ASC_NODE":315.0043,"ARG_OF_PERICENTER":66.751,"MEAN_ANOMALY":293.3892,"EPHEMERIS_TYPE":0,"CLASSIFICATION_TYPE":"U","NORAD_CAT_ID":65189,"ELEMENT_SET_NO":999,"REV_AT_EPOCH":3452,"BSTAR":0.00041216852,"MEAN_MOTION_DOT":5.893e-5,"MEAN_MOTION_DDOT":0},{"OBJECT_NAME":"STARLINK-34917","OBJECT_ID":"2025-175S","EPOCH":"2026-03-22T06:00:02.000160","MEAN_MOTION":15.05663375,"ECCENTRICITY":0.00017315,"INCLINATION":97.6028,"RA_OF_ASC_NODE":315.0654,"ARG_OF_PERICENTER":77.6177,"MEAN_ANOMALY":228.7403,"EPHEMERIS_TYPE":0,"CLASSIFICATION_TYPE":"U","NORAD_CAT_ID":65190,"ELEMENT_SET_NO":999,"REV_AT_EPOCH":578,"BSTAR":-0.002899531,"MEAN_MOTION_DOT":-0.0004167,"MEAN_MOTION_DDOT":0},{"OBJECT_NAME":"STARLINK-34948","OBJECT_ID":"2025-175T","EPOCH":"2026-03-22T04:34:38.525952","MEAN_MOTION":15.05647725,"ECCENTRICITY":0.00023007,"INCLINATION":97.6021,"RA_OF_ASC_NODE":315.0046,"ARG_OF_PERICENTER":70.6205,"MEAN_ANOMALY":289.5271,"EPHEMERIS_TYPE":0,"CLASSIFICATION_TYPE":"U","NORAD_CAT_ID":65191,"ELEMENT_SET_NO":999,"REV_AT_EPOCH":3452,"BSTAR":4.6982782e-5,"MEAN_MOTION_DOT":6.17e-6,"MEAN_MOTION_DDOT":0}]
