STARLINK-34707          
1 65176U 25175C   26081.23224989  .00004602  00000+0  32283-3 0  9993
2 65176  97.6023 314.9541 0002022  63.9791 296.1644 15.05658659 34528
STARLINK-34967          
1 65177U 25175D   26081.22948798  .00003405  00000+0  24008-3 0  9990
2 65177  97.6023 314.9592 0002551  76.7047 283.4464 15.05650510 34525
STARLINK-34929          
1 65178U 25175E   26081.22671365  .00003114  00000+0  21992-3 0  9990
2 65178  97.6016 314.9631 0002416  85.2798 274.8704 15.05653990 34526
STARLINK-34932          
1 65179U 25175F   26081.22117670  .00003681  00000+0  25914-3 0  9992
2 65179  97.6014 314.9712 0002288  82.8465 277.3022 15.05655927 34529
STARLINK-34862          
1 65180U 25175G   26081.21842399  .00008264  00000+0  57620-3 0  9997
2 65180  97.6017 314.9748 0002492  80.1822 279.9687 15.05653725 34527
STARLINK-34942          
1 65181U 25175H   26080.89163818 -.00008177  00000+0 -56297-3 0  9997
2 65181  97.6019 314.6409 0002864  86.6182 273.5372 15.05657909 34444
STARLINK-34944          
1 65182U 25175J   26081.21563831  .00003819  00000+0  26867-3 0  9990
2 65182  97.6002 314.9779 0001777  81.5869 278.5559 15.05656427 34523
STARLINK-34939          
1 65183U 25175K   26081.21287414  .00006581  00000+0  45960-3 0  9995
2 65183  97.6020 314.9794 0001083 115.3838 244.7501 15.05673242 34495
STARLINK-34947          
1 65184U 25175L   26081.21011108  .00015489  00000+0  10743-2 0  9998
2 65184  97.6028 314.9851 0001946  66.3782 293.7649 15.05686510 34522
STARLINK-34945          
1 65185U 25175M   26081.20733463  .00006370  00000+0  44518-3 0  9990
2 65185  97.6017 314.9865 0001623  78.6591 281.4818 15.05656665 34522
STARLINK-34965          
1 65186U 25175N   26081.20179514  .00005335  00000+0  37358-3 0  9996
2 65186  97.6036 314.9968 0001920  68.3503 291.7928 15.05659292 34522
STARLINK-34915          
1 65187U 25175P   26081.20456499  .00003586  00000+0  25259-3 0  9990
2 65187  97.6034 314.9941 0002156  74.6352 285.5113 15.05657350 34526
STARLINK-34972          
1 65188U 25175Q   26081.19902960  .00002745  00000+0  19439-3 0  9997
2 65188  97.6041 315.0003 0001812  57.5623 302.5779 15.05651672 34490
STARLINK-34866          
1 65189U 25175R   26081.19625613  .00005893  00000+0  41217-3 0  9991
2 65189  97.6055 315.0043 0001664  66.7510 293.3892 15.05661753 34520
STARLINK-34917          
1 65190U 25175S   26081.25002315 -.00041670  00000+0 -28995-2 0  9990
2 65190  97.6028 315.0654 0001731  77.6177 228.7403 15.05663375  5783
STARLINK-34948          
1 65191U 25175T   26081.19072368  .00000617  00000+0  46983-4 0  9992
2 65191  97.6021 315.0046 0002300  70.6205 289.5271 15.05647725 34523
